OBJECT_NAME,OBJECT_ID,EPOCH,MEAN_MOTION,ECCENTRICITY,INCLINATION,RA_OF_ASC_NODE,ARG_OF_PERICENTER,MEAN_ANOMALY,EPHEMERIS_TYPE,CLASSIFICATION_TYPE,NORAD_CAT_ID,ELEMENT_SET_NO,REV_AT_EPOCH,BSTAR,MEAN_MOTION_DOT,MEAN_MOTION_DDOT
ONEWEB-0579,2023-043Y,2026-06-08T18:25:22.271232,13.21825956,.0001731,87.9264,245.6437,98.2954,261.8376,0,U,56068,999,15713,-.12962E-3,-.41E-6,0
ONEWEB-0581,2023-043Z,2026-06-08T17:09:00.429120,13.16596100,.0002289,87.9103,230.4665,84.8848,275.2544,0,U,56069,999,15784,-.21683E-3,-.7E-6,0
ONEWEB-0609,2023-043AA,2026-06-08T19:33:42.562080,13.15548404,.0001963,87.9000,260.8797,103.1011,257.0338,0,U,56070,999,15533,.10299E-3,.52E-6,0
ONEWEB-0613,2023-043AB,2026-06-08T19:30:16.853184,13.15549223,.0001676,87.9001,260.8924,104.0063,256.1254,0,U,56071,999,15533,.2379E-3,.102E-5,0
ONEWEB-0630,2023-043AC,2026-06-08T19:23:25.080288,13.15550306,.0001704,87.9003,260.8645,102.6898,257.4423,0,U,56072,999,15532,.24054E-3,.103E-5,0
ONEWEB-0632,2023-043AD,2026-06-08T19:16:36.092064,13.15547824,.0001922,87.9000,260.8835,94.7365,265.3985,0,U,56073,999,15532,.27678E-3,.117E-5,0
ONEWEB-0633,2023-043AE,2026-06-08T19:07:26.813568,13.15547875,.0001677,87.9008,260.8597,111.2408,248.8902,0,U,56074,999,15530,-.94022E-4,-.23E-6,0
ONEWEB-0634,2023-043AF,2026-06-08T18:46:56.238240,13.15548004,.000222,87.9000,260.9036,107.0363,253.1011,0,U,56075,999,15529,-.31664E-3,-.106E-5,0
ONEWEB-0635,2023-043AG,2026-06-08T18:40:04.803168,13.15549588,.0002024,87.9008,260.8664,93.2162,266.9200,0,U,56076,999,15532,-.47418E-3,-.166E-5,0
ONEWEB-0636,2023-043AH,2026-06-08T18:28:41.220192,13.15548316,.0002045,87.9004,260.8749,94.8556,265.2808,0,U,56077,999,15530,-.5245E-3,-.185E-5,0
ONEWEB-0637,2023-043AJ,2026-06-08T18:19:33.738816,13.15548619,.0002269,87.9002,260.8926,99.2099,260.9288,0,U,56078,999,15532,-.45718E-3,-.159E-5,0
ONEWEB-0647,2023-043AK,2026-06-08T18:12:43.255008,13.15548073,.0001851,87.9002,260.9059,96.6244,263.5097,0,U,56079,999,15531,-.44683E-3,-.155E-5,0
ONEWEB-0651,2023-043AL,2026-06-08T19:55:23.644128,13.15548528,.0002135,87.9000,260.8856,95.7031,264.4343,0,U,56080,999,15652,.10277E-3,.52E-6,0
ONEWEB-0718,2023-043AM,2026-06-08T17:59:00.121344,13.15550634,.0002212,87.9001,260.8821,113.1823,246.9541,0,U,56081,999,15532,-.16358E-3,-.49E-6,0
ONEWEB-0561,2023-068A,2026-06-08T18:55:41.334240,13.20769069,.0001779,87.9187,276.1169,88.2590,271.8747,0,U,56710,999,14839,.50719E-3,.219E-5,0
ONEWEB-0668,2023-068B,2026-06-08T05:35:56.031360,13.16593852,.0002568,87.9101,230.5502,104.5654,255.5762,0,U,56711,999,15060,.14798E-3,.69E-6,0
ONEWEB-0676,2023-068C,2026-06-08T13:05:03.103584,13.16596453,.0002162,87.9103,230.4943,89.8558,270.2820,0,U,56712,999,15056,-.13125E-3,-.37E-6,0
ONEWEB-0677,2023-068D,2026-06-08T18:38:41.722656,13.20769450,.0002304,87.9192,276.1110,94.9590,265.1806,0,U,56713,999,14869,-.1523E-3,-.49E-6,0
ONEWEB-0678,2023-068E,2026-06-08T19:02:54.290688,13.15548065,.0001642,87.9007,260.8648,98.6763,261.4553,0,U,56714,999,14818,.12246E-3,.59E-6,0
ONEWEB-0679,2023-068F,2026-06-08T17:34:06.333600,13.16594068,.000262,87.9103,230.4486,95.7367,264.4063,0,U,56715,999,15061,-.13187E-3,-.38E-6,0
ONEWEB-0680,2023-068G,2026-06-08T18:27:46.560096,13.21827603,.0002594,87.9265,245.6449,103.0925,257.0498,0,U,56716,999,14998,-.16636E-3,-.56E-6,0
ONEWEB-0681,2023-068H,2026-06-08T17:59:55.044960,13.21826538,.0002313,87.9258,245.6506,74.9819,285.1571,0,U,56717,999,14997,-.15544E-3,-.51E-6,0
ONEWEB-0682,2023-068J,2026-06-08T17:47:37.290048,13.15548285,.0002486,87.9009,260.8760,103.9617,256.1789,0,U,56718,999,14834,.89842E-4,.47E-6,0
ONEWEB-0683,2023-068K,2026-06-08T18:21:50.772672,13.15548569,.0002199,87.9012,260.8707,105.7970,254.3403,0,U,56719,999,14831,-.62824E-3,-.224E-5,0
ONEWEB-0684,2023-068L,2026-06-08T18:33:14.664096,13.15547684,.0000993,87.9009,260.8596,138.8465,221.2740,0,U,56720,999,14814,-.37313E-3,-.128E-5,0
ONEWEB-0686,2023-068M,2026-06-08T05:40:29.908128,13.16594599,.000212,87.9091,230.5713,108.4495,251.6866,0,U,56721,999,15053,.17788E-3,.81E-6,0
ONEWEB-0694,2023-068N,2026-06-08T05:49:36.909984,13.16594423,.0002518,87.9111,230.5328,103.6893,256.4519,0,U,56722,999,15059,.23868E-4,.22E-6,0
ONEWEB-0696,2023-068P,2026-06-08T19:21:07.998048,13.15569307,.0000945,87.9001,260.8914,110.5767,249.5465,0,U,56723,999,14826,-.10208E-1,-.383E-4,0
ONEWEB-0703,2023-068Q,2026-06-08T17:45:20.083392,13.15547938,.0001347,87.9002,260.8859,78.1950,281.9331,0,U,56724,999,14814,.10783E-3,.53E-6,0
ONEWEB-0721,2023-068R,2026-06-08T19:37:01.967232,13.22468752,.0001928,86.6765,88.1874,78.4952,281.6397,0,U,56725,999,15683,.34669E-4,.29E-6,0
ONEWEB-0015,2024-188A,2026-06-08T09:11:09.225024,13.11416680,.0002315,87.8895,22.8456,77.9504,282.1883,0,U,61594,999,8330,.14238E-2,.517E-5,0
ONEWEB-0687,2024-188B,2026-06-08T19:14:40.678080,13.17648025,.000233,87.9133,7.5452,90.9948,269.1450,0,U,61595,999,8479,-.12649E-3,-.36E-6,0
ONEWEB-0688,2024-188C,2026-06-08T19:55:59.625408,13.17648233,.000294,87.9135,7.5396,72.1221,288.0231,0,U,61596,999,8479,-.13728E-4,.8E-7,0
ONEWEB-0689,2024-188D,2026-06-08T08:10:05.738016,13.11417952,.0001975,87.8910,22.8113,93.4184,266.7170,0,U,61597,999,8329,-.14351E-2,-.496E-5,0
ONEWEB-0690,2024-188E,2026-06-08T02:55:08.764608,13.11419928,.00014753,87.8903,22.8670,64.9702,295.1579,0,U,61598,999,8344,-.10305015E-2,-.353E-5,0
ONEWEB-0691,2024-188F,2026-06-08T02:47:49.831008,13.11417775,.00022165,87.8915,22.7763,82.0805,278.0574,0,U,61599,999,8329,-.13293844E-2,-.458E-5,0
ONEWEB-0692,2024-188G,2026-06-08T08:46:43.866336,13.11419938,.0001533,87.8893,22.8411,110.4718,249.6575,0,U,61600,999,8331,.77101E-3,.286E-5,0
ONEWEB-0693,2024-188H,2026-06-06T08:04:29.969472,13.17649651,.00013896,87.9129,8.0549,66.5698,293.5579,0,U,61601,999,8445,.61298914E-4,.37E-6,0
ONEWEB-0695,2024-188J,2026-06-08T02:42:56.085696,13.11416745,.00018444,87.8898,22.8831,102.4202,257.7132,0,U,61602,999,8327,-.15465472E-2,-.535E-5,0
ONEWEB-0697,2024-188K,2026-06-08T08:58:56.776800,13.11418234,.0001383,87.8898,22.8215,107.9202,252.2077,0,U,61603,999,8329,.18939E-2,.684E-5,0
ONEWEB-0698,2024-188L,2026-06-08T02:57:34.793568,13.11419870,.00006334,87.8893,22.8858,86.9614,273.1586,0,U,61604,999,8328,-.6942955E-3,-.233E-5,0
ONEWEB-0699,2024-188M,2026-06-08T08:35:35.238336,13.10370078,.0001359,87.8836,38.0245,100.4292,259.6988,0,U,61605,999,8215,.82747E-3,.302E-5,0
ONEWEB-0700,2024-188N,2026-06-08T08:37:58.372032,13.10370612,.0001738,87.8854,37.9318,105.5262,254.6057,0,U,61606,999,8214,.75335E-3,.276E-5,0
ONEWEB-0701,2024-188P,2026-06-08T09:01:51.299616,13.10370694,.0001311,87.8843,38.0202,107.6919,252.4351,0,U,61607,999,8215,-.16164E-2,-.552E-5,0
ONEWEB-0702,2024-188Q,2026-06-08T20:32:20.014080,13.11416079,.000169,87.8911,22.6439,118.5937,241.5361,0,U,61608,999,8339,.17253E-3,.74E-6,0
ONEWEB-0704,2024-188R,2026-06-08T08:45:08.502336,13.10369828,.0001859,87.8851,38.0110,117.0457,243.0860,0,U,61609,999,8213,-.23447E-3,-.69E-6,0
ONEWEB-0705,2024-188S,2026-06-08T08:52:19.111296,13.10367691,.0002433,87.8847,38.0156,105.5474,254.5922,0,U,61610,999,7430,.74338E-4,.39E-6,0
ONEWEB-0706,2024-188T,2026-06-08T08:30:48.640032,13.10370824,.0001862,87.8842,38.0243,101.5364,258.5973,0,U,61611,999,8222,.12571E-2,.451E-5,0
ONEWEB-0707,2024-188U,2026-06-08T08:40:21.740736,13.10369841,.0001789,87.8845,38.0165,101.0709,259.0620,0,U,61612,999,8216,.30361E-3,.119E-5,0
ONEWEB-0708,2024-188V,2026-06-08T09:06:38.096640,13.10371371,.0002311,87.8840,38.0321,87.6398,272.4994,0,U,61613,999,8214,-.16805E-2,-.574E-5,0
